[{"OBJECT_NAME":"ONEWEB-0565","OBJECT_ID":"2023-004G","EPOCH":"2026-03-09T19:43:13.571904","MEAN_MOTION":13.18684851,"ECCENTRICITY":0.00022768,"INCLINATION":87.9231,"RA_OF_ASC_NODE":355.2387,"ARG_OF_PERICENTER":76.3218,"MEAN_ANOMALY":283.8167,"EPHEMERIS_TYPE":0,"CLASSIFICATION_TYPE":"U","NORAD_CAT_ID":55146,"ELEMENT_SET_NO":999,"REV_AT_EPOCH":15660,"BSTAR":7.8874263e-5,"MEAN_MOTION_DOT":4.4e-7,"MEAN_MOTION_DDOT":0},{"OBJECT_NAME":"UNKNOWN","OBJECT_ID":"","EPOCH":"2026-03-07T13:27:56.799648","MEAN_MOTION":13.30551844,"ECCENTRICITY":0.00835606,"INCLINATION":82.5877,"RA_OF_ASC_NODE":181.3862,"ARG_OF_PERICENTER":213.5056,"MEAN_ANOMALY":146.0773,"EPHEMERIS_TYPE":0,"CLASSIFICATION_TYPE":"U","NORAD_CAT_ID":270269,"ELEMENT_SET_NO":999,"REV_AT_EPOCH":29012,"BSTAR":0.0006657712,"MEAN_MOTION_DOT":3.32e-6,"MEAN_MOTION_DDOT":0}]
